{
  "type": "FeatureCollection",
  "features": [
    {
      "type": "Feature",
      "properties": {
        "norad_id": 66625,
        "name": "STARLINK-35929",
        "group": "last-30-days",
        "lat": 48.26805359309063,
        "lon": 173.52578112787515,
        "alt_km": 440.0003729926875,
        "timestamp": "2025-12-27T16:33:28.971129+00:00",
        "meta_object_name": "STARLINK-35929",
        "meta_object_id": "2025-271J",
        "meta_epoch": "2025-12-27T11:35:11.912064",
        "meta_mean_motion": 15.39644985,
        "meta_eccentricity": 9.6e-05,
        "meta_inclination": 53.1601,
        "meta_ra_of_asc_node": 117.3075,
        "meta_arg_of_pericenter": 86.4918,
        "meta_mean_anomaly": 273.6196,
        "meta_ephemeris_type": 0,
        "meta_classification_type": "U",
        "meta_norad_cat_id": 66625,
        "meta_element_set_no": 999,
        "meta_rev_at_epoch": 648,
        "meta_bstar": 0.0013567,
        "meta_mean_motion_dot": 0.000543,
        "meta_mean_motion_ddot": 0,
        "tle_line1": "1 66625U 25271J   25361.48277676  .00054300  00000+0  13567-2 0  9991",
        "tle_line2": "2 66625  53.1601 117.3075 0000960  86.4918 273.6196 15.39644985  6484"
      },
      "geometry": {
        "type": "Point",
        "coordinates": [
          173.52578112787515,
          48.26805359309063
        ]
      }
    },
    {
      "type": "Feature",
      "properties": {
        "norad_id": 66626,
        "name": "STARLINK-35902",
        "group": "last-30-days",
        "lat": -6.761136041011431,
        "lon": 111.38648829620358,
        "alt_km": 449.0938390337633,
        "timestamp": "2025-12-27T16:33:28.971139+00:00",
        "meta_object_name": "STARLINK-35902",
        "meta_object_id": "2025-271K",
        "meta_epoch": "2025-12-27T11:55:15.447648",
        "meta_mean_motion": 15.39650656,
        "meta_eccentricity": 0.0001016,
        "meta_inclination": 53.1597,
        "meta_ra_of_asc_node": 117.3966,
        "meta_arg_of_pericenter": 105.9073,
        "meta_mean_anomaly": 254.2044,
        "meta_ephemeris_type": 0,
        "meta_classification_type": "U",
        "meta_norad_cat_id": 66626,
        "meta_element_set_no": 999,
        "meta_rev_at_epoch": 648,
        "meta_bstar": 0.0017075,
        "meta_mean_motion_dot": 0.00068584,
        "meta_mean_motion_ddot": 0,
        "tle_line1": "1 66626U 25271K   25361.49670657  .00068584  00000+0  17075-2 0  9996",
        "tle_line2": "2 66626  53.1597 117.3966 0001016 105.9073 254.2044 15.39650656  6489"
      },
      "geometry": {
        "type": "Point",
        "coordinates": [
          111.38648829620358,
          -6.761136041011431
        ]
      }
    },
    {
      "type": "Feature",
      "properties": {
        "norad_id": 66627,
        "name": "STARLINK-35904",
        "group": "last-30-days",
        "lat": 33.203689854978,
        "lon": 145.76642081614972,
        "alt_km": 442.23465270451106,
        "timestamp": "2025-12-27T16:33:28.971149+00:00",
        "meta_object_name": "STARLINK-35904",
        "meta_object_id": "2025-271L",
        "meta_epoch": "2025-12-27T00:47:32.907264",
        "meta_mean_motion": 15.3965311,
        "meta_eccentricity": 0.00012006,
        "meta_inclination": 53.1602,
        "meta_ra_of_asc_node": 119.4785,
        "meta_arg_of_pericenter": 88.2066,
        "meta_mean_anomaly": 271.9076,
        "meta_ephemeris_type": 0,
        "meta_classification_type": "U",
        "meta_norad_cat_id": 66627,
        "meta_element_set_no": 999,
        "meta_rev_at_epoch": 637,
        "meta_bstar": 0.0011925382,
        "meta_mean_motion_dot": 0.00047652,
        "meta_mean_motion_ddot": 0,
        "tle_line1": "1 66627U 25271L   25361.03301976  .00047652  00000+0  11925-2 0  9993",
        "tle_line2": "2 66627  53.1602 119.4785 0001200  88.2066 271.9076 15.39653110  6376"
      },
      "geometry": {
        "type": "Point",
        "coordinates": [
          145.76642081614972,
          33.203689854978
        ]
      }
    },
    {
      "type": "Feature",
      "properties": {
        "norad_id": 66628,
        "name": "STARLINK-35862",
        "group": "last-30-days",
        "lat": 4.880112468078672,
        "lon": -67.54715466938647,
        "alt_km": 447.3575163146297,
        "timestamp": "2025-12-27T16:33:28.971160+00:00",
        "meta_object_name": "STARLINK-35862",
        "meta_object_id": "2025-271M",
        "meta_epoch": "2025-12-27T08:01:01.359264",
        "meta_mean_motion": 15.39656911,
        "meta_eccentricity": 0.0001391,
        "meta_inclination": 53.1612,
        "meta_ra_of_asc_node": 117.8002,
        "meta_arg_of_pericenter": 77.4166,
        "meta_mean_anomaly": 282.6994,
        "meta_ephemeris_type": 0,
        "meta_classification_type": "U",
        "meta_norad_cat_id": 66628,
        "meta_element_set_no": 999,
        "meta_rev_at_epoch": 646,
        "meta_bstar": 0.0011538,
        "meta_mean_motion_dot": 0.00046087,
        "meta_mean_motion_ddot": 0,
        "tle_line1": "1 66628U 25271M   25361.33404351  .00046087  00000+0  11538-2 0  9999",
        "tle_line2": "2 66628  53.1612 117.8002 0001391  77.4166 282.6994 15.39656911  6464"
      },
      "geometry": {
        "type": "Point",
        "coordinates": [
          -67.54715466938647,
          4.880112468078672
        ]
      }
    },
    {
      "type": "Feature",
      "properties": {
        "norad_id": 66629,
        "name": "STARLINK-35956",
        "group": "last-30-days",
        "lat": -1.6276740206682774,
        "lon": -63.36801087227791,
        "alt_km": 401.0320887755015,
        "timestamp": "2025-12-27T16:33:28.971172+00:00",
        "meta_object_name": "STARLINK-35956",
        "meta_object_id": "2025-271N",
        "meta_epoch": "2025-12-27T11:09:41.416416",
        "meta_mean_motion": 15.57672268,
        "meta_eccentricity": 0.0010324,
        "meta_inclination": 53.1712,
        "meta_ra_of_asc_node": 116.5007,
        "meta_arg_of_pericenter": 28.5043,
        "meta_mean_anomaly": 331.6533,
        "meta_ephemeris_type": 0,
        "meta_classification_type": "U",
        "meta_norad_cat_id": 66629,
        "meta_element_set_no": 999,
        "meta_rev_at_epoch": 135,
        "meta_bstar": 0.006804,
        "meta_mean_motion_dot": 0.00549674,
        "meta_mean_motion_ddot": 0,
        "tle_line1": "1 66629U 25271N   25361.46506269  .00549674  00000+0  68040-2 0  9995",
        "tle_line2": "2 66629  53.1712 116.5007 0010324  28.5043 331.6533 15.57672268  1354"
      },
      "geometry": {
        "type": "Point",
        "coordinates": [
          -63.36801087227791,
          -1.6276740206682774
        ]
      }
    },
    {
      "type": "Feature",
      "properties": {
        "norad_id": 66630,
        "name": "STARLINK-35949",
        "group": "last-30-days",
        "lat": -14.09124706125672,
        "lon": -53.07845468502134,
        "alt_km": 450.1585839837162,
        "timestamp": "2025-12-27T16:33:28.971185+00:00",
        "meta_object_name": "STARLINK-35949",
        "meta_object_id": "2025-271P",
        "meta_epoch": "2025-12-27T12:00:02.000160",
        "meta_mean_motion": 15.39599666,
        "meta_eccentricity": 7.4e-05,
        "meta_inclination": 53.1604,
        "meta_ra_of_asc_node": 116.9693,
        "meta_arg_of_pericenter": 63.3695,
        "meta_mean_anomaly": 161.1392,
        "meta_ephemeris_type": 0,
        "meta_classification_type": "U",
        "meta_norad_cat_id": 66630,
        "meta_element_set_no": 999,
        "meta_rev_at_epoch": 606,
        "meta_bstar": 0.00034501,
        "meta_mean_motion_dot": 0.00013416,
        "meta_mean_motion_ddot": 0,
        "tle_line1": "1 66630U 25271P   25361.50002315  .00013416  00000+0  34501-3 0  9991",
        "tle_line2": "2 66630  53.1604 116.9693 0000740  63.3695 161.1392 15.39599666  6064"
      },
      "geometry": {
        "type": "Point",
        "coordinates": [
          -53.07845468502134,
          -14.09124706125672
        ]
      }
    },
    {
      "type": "Feature",
      "properties": {
        "norad_id": 66631,
        "name": "STARLINK-35965",
        "group": "last-30-days",
        "lat": -15.52839554444417,
        "lon": -51.905320144108686,
        "alt_km": 450.1865643383544,
        "timestamp": "2025-12-27T16:33:28.971197+00:00",
        "meta_object_name": "STARLINK-35965",
        "meta_object_id": "2025-271Q",
        "meta_epoch": "2025-12-27T12:00:02.000160",
        "meta_mean_motion": 15.3960433,
        "meta_eccentricity": 8.97e-05,
        "meta_inclination": 53.1603,
        "meta_ra_of_asc_node": 116.9662,
        "meta_arg_of_pericenter": 85.2042,
        "meta_mean_anomaly": 141.1318,
        "meta_ephemeris_type": 0,
        "meta_classification_type": "U",
        "meta_norad_cat_id": 66631,
        "meta_element_set_no": 999,
        "meta_rev_at_epoch": 601,
        "meta_bstar": 0.00027438,
        "meta_mean_motion_dot": 0.00010585,
        "meta_mean_motion_ddot": 0,
        "tle_line1": "1 66631U 25271Q   25361.50002315  .00010585  00000+0  27438-3 0  9997",
        "tle_line2": "2 66631  53.1603 116.9662 0000897  85.2042 141.1318 15.39604330  6018"
      },
      "geometry": {
        "type": "Point",
        "coordinates": [
          -51.905320144108686,
          -15.52839554444417
        ]
      }
    }
  ]
}